{
  "norad_id": 68212,
  "name": "STARLINK-37117",
  "history": [
    {
      "epoch": "2026-04-11T20:00:01.000224Z",
      "apogee_km": 390.48432053394663,
      "perigee_km": 387.94250371915314,
      "latitude_deg": 31.40927974304312,
      "longitude_deg": 22.156598381401285,
      "height_km": 393.1731762635886,
      "semi_major_axis_km": 6767.35041212655,
      "eccentricity": 0.0001878,
      "inclination_deg": 97.2847,
      "raan_deg": 337.7561,
      "arg_perigee_deg": 67.7044,
      "mean_anomaly_deg": 80.6413,
      "mean_motion_rev_day": 15.59461886
    },
    {
      "epoch": "2026-04-13T06:00:02.000160Z",
      "apogee_km": 407.8975034924506,
      "perigee_km": 405.11132264975913,
      "latitude_deg": 18.676034779614966,
      "longitude_deg": -129.78023148638812,
      "height_km": 408.66817043185944,
      "semi_major_axis_km": 6784.641413071105,
      "eccentricity": 0.00020533,
      "inclination_deg": 97.2843,
      "raan_deg": 339.2091,
      "arg_perigee_deg": 89.6379,
      "mean_anomaly_deg": 71.5017,
      "mean_motion_rev_day": 15.53504135
    },
    {
      "epoch": "2026-04-14T20:00:01.999008Z",
      "apogee_km": 426.8491602086697,
      "perigee_km": 423.840660507909,
      "latitude_deg": -8.970297270148027,
      "longitude_deg": -161.06212325998803,
      "height_km": 430.69744789835914,
      "semi_major_axis_km": 6803.481910358289,
      "eccentricity": 0.0002211,
      "inclination_deg": 97.2848,
      "raan_deg": 340.8005,
      "arg_perigee_deg": 105.664,
      "mean_anomaly_deg": 245.4964,
      "mean_motion_rev_day": 15.47055558
    },
    {
      "epoch": "2026-04-15T20:00:01.999008Z",
      "apogee_km": 439.45802963297956,
      "perigee_km": 436.15229768360587,
      "latitude_deg": 31.264455769679873,
      "longitude_deg": 22.24068167639629,
      "height_km": 440.98096166076607,
      "semi_major_axis_km": 6815.942163658293,
      "eccentricity": 0.0002425,
      "inclination_deg": 97.2855,
      "raan_deg": 341.8116,
      "arg_perigee_deg": 93.5625,
      "mean_anomaly_deg": 54.927,
      "mean_motion_rev_day": 15.42815229
    },
    {
      "epoch": "2026-04-16T20:00:01.999008Z",
      "apogee_km": 451.3987814905704,
      "perigee_km": 449.12629012505477,
      "latitude_deg": -68.2970571203266,
      "longitude_deg": -143.54940533331805,
      "height_km": 477.09088961587327,
      "semi_major_axis_km": 6828.399535807813,
      "eccentricity": 0.0001664,
      "inclination_deg": 97.2849,
      "raan_deg": 342.8069,
      "arg_perigee_deg": 95.1899,
      "mean_anomaly_deg": 195.4926,
      "mean_motion_rev_day": 15.38595209
    },
    {
      "epoch": "2026-04-17T22:00:01.999584Z",
      "apogee_km": 466.3759434110116,
      "perigee_km": 465.13678807821,
      "latitude_deg": 22.069169772438254,
      "longitude_deg": -9.221090425393765,
      "height_km": 468.50238013311684,
      "semi_major_axis_km": 6843.8933657446105,
      "eccentricity": 9.053e-05,
      "inclination_deg": 97.2827,
      "raan_deg": 343.8769,
      "arg_perigee_deg": 78.9051,
      "mean_anomaly_deg": 78.8415,
      "mean_motion_rev_day": 15.33373349
    },
    {
      "epoch": "2026-04-18T20:00:01.000224Z",
      "apogee_km": 466.2982159881012,
      "perigee_km": 464.7392312142656,
      "latitude_deg": 5.218271281003069,
      "longitude_deg": 18.48905803454409,
      "height_km": 468.34962853305643,
      "semi_major_axis_km": 6843.655723601183,
      "eccentricity": 0.0001139,
      "inclination_deg": 97.2844,
      "raan_deg": 344.7747,
      "arg_perigee_deg": 66.2608,
      "mean_anomaly_deg": 108.376,
      "mean_motion_rev_day": 15.33453218
    },
    {
      "epoch": "2026-04-19T20:00:01.999008Z",
      "apogee_km": 466.32658195484964,
      "perigee_km": 464.5787291568222,
      "latitude_deg": -67.49700305242465,
      "longitude_deg": -144.30924028256834,
      "height_km": 491.63401702210524,
      "semi_major_axis_km": 6843.589655555836,
      "eccentricity": 0.0001277,
      "inclination_deg": 97.2847,
      "raan_deg": 345.761,
      "arg_perigee_deg": 71.2224,
      "mean_anomaly_deg": 220.3191,
      "mean_motion_rev_day": 15.33475424
    },
    {
      "epoch": "2026-04-20T14:00:03.000384Z",
      "apogee_km": 466.4620675832839,
      "perigee_km": 464.8398160895513,
      "latitude_deg": 69.55116477603822,
      "longitude_deg": 127.74931126989473,
      "height_km": 477.0979058734059,
      "semi_major_axis_km": 6843.787941836417,
      "eccentricity": 0.00011852,
      "inclination_deg": 97.2846,
      "raan_deg": 346.4996,
      "arg_perigee_deg": 66.9479,
      "mean_anomaly_deg": 42.2897,
      "mean_motion_rev_day": 15.3340878
    },
    {
      "epoch": "2026-04-21T00:00:02.000160Z",
      "apogee_km": 466.409393428321,
      "perigee_km": 464.9619249359048,
      "latitude_deg": -66.91507615876144,
      "longitude_deg": -59.534695144016865,
      "height_km": 491.7271459703627,
      "semi_major_axis_km": 6843.822659182113,
      "eccentricity": 0.00010575,
      "inclination_deg": 97.2847,
      "raan_deg": 346.9091,
      "arg_perigee_deg": 85.7342,
      "mean_anomaly_deg": 162.1105,
      "mean_motion_rev_day": 15.33397112
    },
    {
      "epoch": "2026-04-22T03:06:47.985120Z",
      "apogee_km": 467.2251020480262,
      "perigee_km": 463.83748624242526,
      "latitude_deg": 7.277950146880473e-05,
      "longitude_deg": 91.12381953636222,
      "height_km": 469.0884216425422,
      "semi_major_axis_km": 6843.668294145225,
      "eccentricity": 0.0002475,
      "inclination_deg": 97.2856,
      "raan_deg": 348.0195,
      "arg_perigee_deg": 105.3713,
      "mean_anomaly_deg": 254.7804,
      "mean_motion_rev_day": 15.33448993
    },
    {
      "epoch": "2026-04-24T13:03:35.932896Z",
      "apogee_km": 466.5888504064533,
      "perigee_km": 464.42899575312913,
      "latitude_deg": 4.100647235162156e-06,
      "longitude_deg": -58.07304295613547,
      "height_km": 468.31152663005736,
      "semi_major_axis_km": 6843.645923079791,
      "eccentricity": 0.0001578,
      "inclination_deg": 97.2863,
      "raan_deg": 350.4022,
      "arg_perigee_deg": 73.4897,
      "mean_anomaly_deg": 286.6519,
      "mean_motion_rev_day": 15.33456512
    },
    {
      "epoch": "2026-04-24T13:03:35.933760Z",
      "apogee_km": 466.5889188429119,
      "perigee_km": 464.4289273166696,
      "latitude_deg": 2.990180279233497e-06,
      "longitude_deg": -58.07304642479543,
      "height_km": 468.3115071791104,
      "semi_major_axis_km": 6843.645923079791,
      "eccentricity": 0.00015781,
      "inclination_deg": 97.2863,
      "raan_deg": 350.4022,
      "arg_perigee_deg": 73.4897,
      "mean_anomaly_deg": 286.6519,
      "mean_motion_rev_day": 15.33456512
    },
    {
      "epoch": "2026-04-27T05:16:16.493376Z",
      "apogee_km": 466.7179024366769,
      "perigee_km": 464.3349388336128,
      "latitude_deg": -1.680865035448715e-05,
      "longitude_deg": 58.758494946118795,
      "height_km": 468.6471017179125,
      "semi_major_axis_km": 6843.663420635145,
      "eccentricity": 0.0001741,
      "inclination_deg": 97.2865,
      "raan_deg": 353.0398,
      "arg_perigee_deg": 90.5532,
      "mean_anomaly_deg": 269.591,
      "mean_motion_rev_day": 15.33450631
    },
    {
      "epoch": "2026-04-28T15:43:33.760704Z",
      "apogee_km": 467.4830154810761,
      "perigee_km": 463.545178639828,
      "latitude_deg": 3.764275216652257e-05,
      "longitude_deg": -98.06236628277166,
      "height_km": 469.6050741070521,
      "semi_major_axis_km": 6843.651097060452,
      "eccentricity": 0.0002877,
      "inclination_deg": 97.2857,
      "raan_deg": 354.4559,
      "arg_perigee_deg": 119.9475,
      "mean_anomaly_deg": 240.2054,
      "mean_motion_rev_day": 15.33454773
    },
    {
      "epoch": "2026-04-29T15:13:04.886112Z",
      "apogee_km": 466.77704957264905,
      "perigee_km": 464.27637485220566,
      "latitude_deg": -2.9778819197193687e-05,
      "longitude_deg": -90.44252781207801,
      "height_km": 468.74261949047803,
      "semi_major_axis_km": 6843.663712212427,
      "eccentricity": 0.0001827,
      "inclination_deg": 97.2851,
      "raan_deg": 355.4202,
      "arg_perigee_deg": 94.9002,
      "mean_anomaly_deg": 265.2449,
      "mean_motion_rev_day": 15.33450533
    },
    {
      "epoch": "2026-04-30T14:42:35.582112Z",
      "apogee_km": 466.89512095719965,
      "perigee_km": 464.1152335048091,
      "latitude_deg": 2.4383282057973176e-05,
      "longitude_deg": -82.8210113007509,
      "height_km": 468.78160520630416,
      "semi_major_axis_km": 6843.642177231004,
      "eccentricity": 0.0002031,
      "inclination_deg": 97.2871,
      "raan_deg": 356.3844,
      "arg_perigee_deg": 96.9301,
      "mean_anomaly_deg": 263.2173,
      "mean_motion_rev_day": 15.33457771
    },
    {
      "epoch": "2026-05-02T08:59:42.923040Z",
      "apogee_km": 466.9747618700276,
      "perigee_km": 464.2345277154518,
      "latitude_deg": -5.083433969251534e-05,
      "longitude_deg": 2.898910162038995,
      "height_km": 468.98759905584626,
      "semi_major_axis_km": 6843.741644792739,
      "eccentricity": 0.0002002,
      "inclination_deg": 97.2861,
      "raan_deg": 358.1215,
      "arg_perigee_deg": 101.5411,
      "mean_anomaly_deg": 258.6056,
      "mean_motion_rev_day": 15.3342434
    },
    {
      "epoch": "2026-05-03T14:45:06.619680Z",
      "apogee_km": 466.68136402381424,
      "perigee_km": 464.38873388741285,
      "latitude_deg": -6.484491898627479e-05,
      "longitude_deg": -83.45038671639324,
      "height_km": 468.87821687233566,
      "semi_major_axis_km": 6843.672048955613,
      "eccentricity": 0.0001675,
      "inclination_deg": 97.2845,
      "raan_deg": 359.343,
      "arg_perigee_deg": 101.7638,
      "mean_anomaly_deg": 258.3792,
      "mean_motion_rev_day": 15.33447731
    }
  ]
}